GSAT0216 (GALILEO 20)
1 43056U 17079B   25332.10937407  .00000027  00000+0  00000+0 0  9995
2 43056  55.1357 227.0409 0002717 312.5742  47.4772  1.70473880 49575